CCSDS_OMM_VERS = 2.0
CREATION_DATE  = 
ORIGINATOR     = 

OBJECT_NAME    = SL-3 R/B
OBJECT_ID      = 1982-079B
CENTER_NAME    = EARTH
REF_FRAME      = TEME
TIME_SYSTEM    = UTC
MEAN_ELEMENT_THEORY = SGP/SGP4

EPOCH          = 2025-11-29T19:22:57.853056
MEAN_MOTION    = 15.23364656
ECCENTRICITY   = .0026487
INCLINATION    = 81.1463
RA_OF_ASC_NODE = 310.9038
ARG_OF_PERICENTER = 140.7358
MEAN_ANOMALY   = 219.5802

EPHEMERIS_TYPE = 0
CLASSIFICATION_TYPE = U
NORAD_CAT_ID   = 13403
ELEMENT_SET_NO = 999
REV_AT_EPOCH   = 36248
BSTAR          = .24576E-3
MEAN_MOTION_DOT = .5924E-4
MEAN_MOTION_DDOT = 0

CCSDS_OMM_VERS = 2.0
CREATION_DATE  = 
ORIGINATOR     = 

OBJECT_NAME    = SL-14 R/B
OBJECT_ID      = 1982-092B
CENTER_NAME    = EARTH
REF_FRAME      = TEME
TIME_SYSTEM    = UTC
MEAN_ELEMENT_THEORY = SGP/SGP4

EPOCH          = 2025-11-29T19:48:02.234304
MEAN_MOTION    = 14.86534114
ECCENTRICITY   = .0018814
INCLINATION    = 82.5688
RA_OF_ASC_NODE = 234.7886
ARG_OF_PERICENTER = 273.2187
MEAN_ANOMALY   = 153.4748

EPHEMERIS_TYPE = 0
CLASSIFICATION_TYPE = U
NORAD_CAT_ID   = 13553
ELEMENT_SET_NO = 999
REV_AT_EPOCH   = 31409
BSTAR          = .61148E-4
MEAN_MOTION_DOT = .567E-5
MEAN_MOTION_DDOT = 0

CCSDS_OMM_VERS = 2.0
CREATION_DATE  = 
ORIGINATOR     = 

OBJECT_NAME    = SL-3 R/B
OBJECT_ID      = 1983-010B
CENTER_NAME    = EARTH
REF_FRAME      = TEME
TIME_SYSTEM    = UTC
MEAN_ELEMENT_THEORY = SGP/SGP4

EPOCH          = 2025-11-29T19:17:31.026048
MEAN_MOTION    = 15.42947058
ECCENTRICITY   = .0017788
INCLINATION    = 81.1022
RA_OF_ASC_NODE = 124.4022
ARG_OF_PERICENTER = 35.9364
MEAN_ANOMALY   = 324.3071

EPHEMERIS_TYPE = 0
CLASSIFICATION_TYPE = U
NORAD_CAT_ID   = 13819
ELEMENT_SET_NO = 999
REV_AT_EPOCH   = 34252
BSTAR          = .3057E-3
MEAN_MOTION_DOT = .1356E-3
MEAN_MOTION_DDOT = 0

CCSDS_OMM_VERS = 2.0
CREATION_DATE  = 
ORIGINATOR     = 

OBJECT_NAME    = SL-3 R/B
OBJECT_ID      = 1983-075B
CENTER_NAME    = EARTH
REF_FRAME      = TEME
TIME_SYSTEM    = UTC
MEAN_ELEMENT_THEORY = SGP/SGP4

EPOCH          = 2025-11-29T19:44:36.176352
MEAN_MOTION    = 15.35746833
ECCENTRICITY   = .0021375
INCLINATION    = 97.6107
RA_OF_ASC_NODE = 329.8769
ARG_OF_PERICENTER = 223.1799
MEAN_ANOMALY   = 136.7769

EPHEMERIS_TYPE = 0
CLASSIFICATION_TYPE = U
NORAD_CAT_ID   = 14208
ELEMENT_SET_NO = 999
REV_AT_EPOCH   = 31481
BSTAR          = .31257E-3
MEAN_MOTION_DOT = .10866E-3
MEAN_MOTION_DDOT = 0

CCSDS_OMM_VERS = 2.0
CREATION_DATE  = 
ORIGINATOR     = 

OBJECT_NAME    = COSMOS 1536
OBJECT_ID      = 1984-013A
CENTER_NAME    = EARTH
REF_FRAME      = TEME
TIME_SYSTEM    = UTC
MEAN_ELEMENT_THEORY = SGP/SGP4

EPOCH          = 2025-11-29T17:26:16.625184
MEAN_MOTION    = 15.22307456
ECCENTRICITY   = .001322
INCLINATION    = 82.5466
RA_OF_ASC_NODE = 207.0664
ARG_OF_PERICENTER = 276.5960
MEAN_ANOMALY   = 83.3771

EPHEMERIS_TYPE = 0
CLASSIFICATION_TYPE = U
NORAD_CAT_ID   = 14699
ELEMENT_SET_NO = 999
REV_AT_EPOCH   = 25740
BSTAR          = .2923E-3
MEAN_MOTION_DOT = .678E-4
MEAN_MOTION_DDOT = 0

CCSDS_OMM_VERS = 2.0
CREATION_DATE  = 
ORIGINATOR     = 

OBJECT_NAME    = SL-14 R/B
OBJECT_ID      = 1984-027B
CENTER_NAME    = EARTH
REF_FRAME      = TEME
TIME_SYSTEM    = UTC
MEAN_ELEMENT_THEORY = SGP/SGP4

EPOCH          = 2025-11-29T18:15:00.957600
MEAN_MOTION    = 14.85851940
ECCENTRICITY   = .0016694
INCLINATION    = 82.5410
RA_OF_ASC_NODE = 338.7295
ARG_OF_PERICENTER = 307.7057
MEAN_ANOMALY   = 52.2645

EPHEMERIS_TYPE = 0
CLASSIFICATION_TYPE = U
NORAD_CAT_ID   = 14820
ELEMENT_SET_NO = 999
REV_AT_EPOCH   = 23279
BSTAR          = .62233E-4
MEAN_MOTION_DOT = .567E-5
MEAN_MOTION_DDOT = 0

CCSDS_OMM_VERS = 2.0
CREATION_DATE  = 
ORIGINATOR     = 

OBJECT_NAME    = SL-8 R/B
OBJECT_ID      = 1985-006B
CENTER_NAME    = EARTH
REF_FRAME      = TEME
TIME_SYSTEM    = UTC
MEAN_ELEMENT_THEORY = SGP/SGP4

EPOCH          = 2025-11-29T17:58:16.584384
MEAN_MOTION    = 14.37708564
ECCENTRICITY   = .0018121
INCLINATION    = 74.0460
RA_OF_ASC_NODE = 85.0348
ARG_OF_PERICENTER = 20.8818
MEAN_ANOMALY   = 89.1026

EPHEMERIS_TYPE = 0
CLASSIFICATION_TYPE = U
NORAD_CAT_ID   = 15483
ELEMENT_SET_NO = 999
REV_AT_EPOCH   = 13966
BSTAR          = .10789E-3
MEAN_MOTION_DOT = .299E-5
MEAN_MOTION_DDOT = 0

CCSDS_OMM_VERS = 2.0
CREATION_DATE  = 
ORIGINATOR     = 

OBJECT_NAME    = SL-12 R/B(2)
OBJECT_ID      = 1985-042D
CENTER_NAME    = EARTH
REF_FRAME      = TEME
TIME_SYSTEM    = UTC
MEAN_ELEMENT_THEORY = SGP/SGP4

EPOCH          = 2025-11-29T16:23:42.795744
MEAN_MOTION    = 14.21945159
ECCENTRICITY   = .0037671
INCLINATION    = 71.1080
RA_OF_ASC_NODE = 299.0034
ARG_OF_PERICENTER = 280.6013
MEAN_ANOMALY   = 252.2276

EPHEMERIS_TYPE = 0
CLASSIFICATION_TYPE = U
NORAD_CAT_ID   = 15772
ELEMENT_SET_NO = 999
REV_AT_EPOCH   = 10017
BSTAR          = .93152E-4
MEAN_MOTION_DOT = .159E-5
MEAN_MOTION_DDOT = 0

CCSDS_OMM_VERS = 2.0
CREATION_DATE  = 
ORIGINATOR     = 

OBJECT_NAME    = SL-14 R/B
OBJECT_ID      = 1985-069B
CENTER_NAME    = EARTH
REF_FRAME      = TEME
TIME_SYSTEM    = UTC
MEAN_ELEMENT_THEORY = SGP/SGP4

EPOCH          = 2025-11-29T15:22:56.025408
MEAN_MOTION    = 14.86298505
ECCENTRICITY   = .001933
INCLINATION    = 82.5252
RA_OF_ASC_NODE = 119.0169
ARG_OF_PERICENTER = 159.7113
MEAN_ANOMALY   = 200.4876

EPHEMERIS_TYPE = 0
CLASSIFICATION_TYPE = U
NORAD_CAT_ID   = 15945
ELEMENT_SET_NO = 999
REV_AT_EPOCH   = 15797
BSTAR          = .70295E-4
MEAN_MOTION_DOT = .645E-5
MEAN_MOTION_DDOT = 0

CCSDS_OMM_VERS = 2.0
CREATION_DATE  = 
ORIGINATOR     = 

OBJECT_NAME    = SL-16 R/B
OBJECT_ID      = 1985-097B
CENTER_NAME    = EARTH
REF_FRAME      = TEME
TIME_SYSTEM    = UTC
MEAN_ELEMENT_THEORY = SGP/SGP4

EPOCH          = 2025-11-29T19:24:06.062400
MEAN_MOTION    = 14.16582359
ECCENTRICITY   = .0005918
INCLINATION    = 71.0036
RA_OF_ASC_NODE = 350.8284
ARG_OF_PERICENTER = 31.9764
MEAN_ANOMALY   = 140.2360

EPHEMERIS_TYPE = 0
CLASSIFICATION_TYPE = U
NORAD_CAT_ID   = 16182
ELEMENT_SET_NO = 999
REV_AT_EPOCH   = 7308
BSTAR          = -.5211E-4
MEAN_MOTION_DOT = -.152E-5
MEAN_MOTION_DDOT = 0

CCSDS_OMM_VERS = 2.0
CREATION_DATE  = 
ORIGINATOR     = 

OBJECT_NAME    = SL-14 R/B
OBJECT_ID      = 1986-006B
CENTER_NAME    = EARTH
REF_FRAME      = TEME
TIME_SYSTEM    = UTC
MEAN_ELEMENT_THEORY = SGP/SGP4

EPOCH          = 2025-11-29T18:38:50.273664
MEAN_MOTION    = 14.86643531
ECCENTRICITY   = .0075342
INCLINATION    = 82.5270
RA_OF_ASC_NODE = 353.7493
ARG_OF_PERICENTER = 243.3756
MEAN_ANOMALY   = 115.9730

EPHEMERIS_TYPE = 0
CLASSIFICATION_TYPE = U
NORAD_CAT_ID   = 16496
ELEMENT_SET_NO = 999
REV_AT_EPOCH   = 13436
BSTAR          = .76609E-4
MEAN_MOTION_DOT = .741E-5
MEAN_MOTION_DDOT = 0

CCSDS_OMM_VERS = 2.0
CREATION_DATE  = 
ORIGINATOR     = 

OBJECT_NAME    = COSMOS 1743
OBJECT_ID      = 1986-034A
CENTER_NAME    = EARTH
REF_FRAME      = TEME
TIME_SYSTEM    = UTC
MEAN_ELEMENT_THEORY = SGP/SGP4

EPOCH          = 2025-11-29T13:30:35.383392
MEAN_MOTION    = 15.51192440
ECCENTRICITY   = .0005081
INCLINATION    = 82.5359
RA_OF_ASC_NODE = 178.2678
ARG_OF_PERICENTER = 312.1576
MEAN_ANOMALY   = 47.9244

EPHEMERIS_TYPE = 0
CLASSIFICATION_TYPE = U
NORAD_CAT_ID   = 16719
ELEMENT_SET_NO = 999
REV_AT_EPOCH   = 16469
BSTAR          = .39244E-3
MEAN_MOTION_DOT = .23011E-3
MEAN_MOTION_DDOT = 0

