SL-3 R/B                
1 13403U 82079B   25333.80761404  .00005924  00000+0  24576-3 0  9999
2 13403  81.1463 310.9038 0026487 140.7358 219.5802 15.23364656362486
SL-14 R/B               
1 13553U 82092B   25333.82502586  .00000567  00000+0  61148-4 0  9991
2 13553  82.5688 234.7886 0018814 273.2187 153.4748 14.86534114314092
SL-3 R/B                
1 13819U 83010B   25333.80383132  .00013560  00000+0  30570-3 0  9990
2 13819  81.1022 124.4022 0017788  35.9364 324.3071 15.42947058342525
SL-3 R/B                
1 14208U 83075B   25333.82264093  .00010866  00000+0  31257-3 0  9999
2 14208  97.6107 329.8769 0021375 223.1799 136.7769 15.35746833314813
COSMOS 1536             
1 14699U 84013A   25333.72658131  .00006780  00000+0  29230-3 0  9993
2 14699  82.5466 207.0664 0013220 276.5960  83.3771 15.22307456257402
SL-14 R/B               
1 14820U 84027B   25333.76042775  .00000567  00000+0  62233-4 0  9997
2 14820  82.5410 338.7295 0016694 307.7057  52.2645 14.85851940232791
SL-8 R/B                
1 15483U 85006B   25333.74880306  .00000299  00000+0  10789-3 0  9999
2 15483  74.0460  85.0348 0018121  20.8818  89.1026 14.37708564139668
SL-12 R/B(2)            
1 15772U 85042D   25333.68313421  .00000159  00000+0  93152-4 0  9993
2 15772  71.1080 299.0034 0037671 280.6013 252.2276 14.21945159100178
SL-14 R/B               
1 15945U 85069B   25333.64092622  .00000645  00000+0  70295-4 0  9990
2 15945  82.5252 119.0169 0019330 159.7113 200.4876 14.86298505157974
SL-16 R/B               
1 16182U 85097B   25333.80840350 -.00000152  00000+0 -52110-4 0  9993
2 16182  71.0036 350.8284 0005918  31.9764 140.2360 14.16582359 73088
SL-14 R/B               
1 16496U 86006B   25333.77697076  .00000741  00000+0  76609-4 0  9994
2 16496  82.5270 353.7493 0075342 243.3756 115.9730 14.86643531134361
COSMOS 1743             
1 16719U 86034A   25333.56290953  .00023011  00000+0  39244-3 0  9991
2 16719  82.5359 178.2678 0005081 312.1576  47.9244 15.51192440164694
